NORAD_CAT_ID,OBJECT_NAME,OBJECT_TYPE,EPOCH,MEAN_MOTION,ECCENTRICITY,INCLINATION,RA_OF_ASC_NODE,ARG_OF_PERICENTER,MEAN_ANOMALY,BSTAR,MEAN_MOTION_DOT,MEAN_MOTION_DDOT,TLE_LINE0,TLE_LINE1,TLE_LINE2,SEMIMAJOR_AXIS,PERIOD,APOGEE,PERIGEE,DECAYED
51855.0,STARLINK-3545,PAYLOAD,2022-11-08 17:55:01,15.08862887,0.0002272,53.2186,82.196,56.7664,303.3545,0.00033161,4.997e-05,0.0,0 STARLINK-3545,1 51855U 22022D   22312.74654426  .00004997  00000-0  33161-3 0  9996,2 51855  53.2186  82.1960 0002272  56.7664 303.3545 15.08862887 39259,6917.81,95.436,541.247,538.104,0.0
51855.0,STARLINK-3545,PAYLOAD,2022-11-09 14:35:01,15.0882351,0.0001651,53.2176,78.3272,31.7645,328.3446,-0.00095551,-0.00015456,0.0,0 STARLINK-3545,1 51855U 22022D   22313.60765820 -.00015456  00000-0 -95551-3 0  9998,2 51855  53.2176  78.3272 0001651  31.7645 328.3446 15.08823510 39384,6917.931,95.439,540.938,538.654,0.0
51855.0,STARLINK-3545,PAYLOAD,2022-11-09 17:45:47,15.08815326,0.0001563,53.2175,77.7328,27.627,332.4805,-0.00097326,-0.00015734,0.0,0 STARLINK-3545,1 51855U 22022D   22313.74013823 -.00015734  00000-0 -97326-3 0  9993,2 51855  53.2175  77.7328 0001563  27.6270 332.4805 15.08815326 39402,6917.956,95.439,540.9019999999998,538.74,0.0
51855.0,STARLINK-3545,PAYLOAD,2022-11-10 11:15:04,15.08814746,0.0001728,53.2178,74.4626,30.6564,329.4529,0.0010085,0.00015788,0.0,0 STARLINK-3545,1 51855U 22022D   22314.46879935  .00015788  00000-0  10085-2 0  9990,2 51855  53.2178  74.4626 0001728  30.6564 329.4529 15.08814746 39519,6917.958000000001,95.439,541.018,538.627,0.0
51855.0,STARLINK-3545,PAYLOAD,2022-11-10 14:25:50,15.08820648,0.0001746,53.2181,73.868,31.7999,328.3098,0.0010869,0.00017043,0.0,0 STARLINK-3545,1 51855U 22022D   22314.60128108  .00017043  00000-0  10869-2 0  9991,2 51855  53.2181  73.8680 0001746  31.7999 328.3098 15.08820648 39539,6917.94,95.439,541.012,538.597,0.0
51855.0,STARLINK-3545,PAYLOAD,2022-11-11 12:41:14,15.08841161,0.0001736,53.2191,69.7051,37.9916,322.1198,0.00070466,0.00010945,0.0,0 STARLINK-3545,1 51855U 22022D   22315.52864545  .00010945  00000-0  70466-3 0  9999,2 51855  53.2191  69.7051 0001736  37.9916 322.1198 15.08841161 39673,6917.877,95.437,540.943,538.5409999999998,0.0
51855.0,STARLINK-3545,PAYLOAD,2022-11-11 14:16:38,15.08840078,0.0001949,53.2186,69.4082,34.7694,325.3426,0.00062009,9.594e-05,0.0,0 STARLINK-3545,1 51855U 22022D   22315.59488626  .00009594  00000-0  62009-3 0  9990,2 51855  53.2186  69.4082 0001949  34.7694 325.3426 15.08840078 39688,6917.88,95.438,541.0930000000002,538.3969999999998,0.0
51855.0,STARLINK-3545,PAYLOAD,2022-11-11 17:27:24,15.08845239,0.0001991,53.2184,68.8134,35.4252,324.6872,0.00074227,0.00011547,0.0,0 STARLINK-3545,1 51855U 22022D   22315.72736578  .00011547  00000-0  74227-3 0  9993,2 51855  53.2184  68.8134 0001991  35.4252 324.6872 15.08845239 39706,6917.864000000001,95.437,541.107,538.352,0.0
51855.0,STARLINK-3545,PAYLOAD,2022-11-12 14:07:24,15.08855077,0.0002056,53.2187,64.9478,37.145,322.9684,0.0005246,8.074e-05,0.0,0 STARLINK-3545,1 51855U 22022D   22316.58848071  .00008074  00000-0  52460-3 0  9996,2 51855  53.2187  64.9478 0002056  37.1450 322.9684 15.08855077 39836,6917.834,95.437,541.122,538.2769999999998,0.0
51855.0,STARLINK-3545,PAYLOAD,2022-11-12 17:18:10,15.08857054,0.000207,53.2188,64.35300000000001,36.9332,323.1802,0.00052563,8.091e-05,0.0,0 STARLINK-3545,1 51855U 22022D   22316.72095924  .00008091  00000-0  52563-3 0  9996,2 51855  53.2188  64.3530 0002070  36.9332 323.1802 15.08857054 39856,6917.828,95.436,541.125,538.261,0.0
51855.0,STARLINK-3545,PAYLOAD,2022-11-12 18:53:33,15.08858149,0.0002072,53.2186,64.0556,36.5138,323.5995,0.0005105,7.85e-05,0.0,0 STARLINK-3545,1 51855U 22022D   22316.78719807  .00007850  00000-0  51050-3 0  9997,2 51855  53.2186  64.0556 0002072  36.5138 323.5995 15.08858149 39865,6917.825,95.436,541.123,538.257,0.0
51855.0,STARLINK-3545,PAYLOAD,2022-11-13 10:47:24,15.08855637,0.0002132,53.2189,61.0819,37.1614,322.9525,0.00018627,2.679e-05,0.0,0 STARLINK-3545,1 51855U 22022D   22317.44959268  .00002679  00000-0  18627-3 0  9995,2 51855  53.2189  61.0819 0002132  37.1614 322.9525 15.08855637 39962,6917.833000000001,95.437,541.172,538.2230000000002,0.0
51855.0,STARLINK-3545,PAYLOAD,2022-11-13 13:58:11,15.0883831,0.0001996,53.2186,60.4871,30.9875,329.1234,-0.00012576,-2.289e-05,0.0,0 STARLINK-3545,1 51855U 22022D   22317.58207908 -.00002289  00000-0 -12576-3 0  9993,2 51855  53.2186  60.4871 0001996  30.9875 329.1234 15.08838310 39984,6917.886,95.438,541.131,538.37,0.0
51855.0,STARLINK-3545,PAYLOAD,2022-11-14 10:38:13,15.08830808,0.0002106,53.2187,56.6223,34.7077,325.4052,-0.00012156,-2.222e-05,0.0,0 STARLINK-3545,1 51855U 22022D   22318.44320795 -.00002222  00000-0 -12156-3 0  9990,2 51855  53.2187  56.6223 0002106  34.7077 325.4052 15.08830808 40111,6917.908,95.438,541.23,538.317,0.0
51855.0,STARLINK-3545,PAYLOAD,2022-11-14 15:24:22,15.08832162,0.0002086,53.2193,55.7301,37.9306,322.1832,-8.552200000000001e-05,-1.649e-05,0.0,0 STARLINK-3545,1 51855U 22022D   22318.64192855 -.00001649  00000-0 -85522-4 0  9996,2 51855  53.2193  55.7301 0002086  37.9306 322.1832 15.08832162 40140,6917.904,95.438,541.212,538.326,0.0
51855.0,STARLINK-3545,PAYLOAD,2022-11-15 07:18:13,15.08851337,0.0002121,53.2194,52.7567,34.6526,325.4604,-0.00029834,-5.035e-05,0.0,0 STARLINK-3545,1 51855U 22022D   22319.30431805 -.00005035  00000-0 -29834-3 0  9997,2 51855  53.2194  52.7567 0002121  34.6526 325.4604 15.08851337 40249,6917.846,95.437,541.178,538.243,0.0
51855.0,STARLINK-3545,PAYLOAD,2022-11-15 12:04:23,15.0883158,0.0002086,53.2189,51.8647,37.1394,322.9742,0.00015099,2.115e-05,0.0,0 STARLINK-3545,1 51855U 22022D   22319.50305314  .00002115  00000-0  15099-3 0  9996,2 51855  53.2189  51.8647 0002086  37.1394 322.9742 15.08831580 40279,6917.906,95.438,541.214,538.328,0.0
51855.0,STARLINK-3545,PAYLOAD,2022-11-15 13:39:46,15.08831814,0.0002121,53.2191,51.5675,37.9623,322.1518,0.00016447,2.33e-05,0.0,0 STARLINK-3545,1 51855U 22022D   22319.56929397  .00002330  00000-0  16447-3 0  9992,2 51855  53.2191  51.5675 0002121  37.9623 322.1518 15.08831814 40287,6917.905,95.438,541.238,538.303,0.0
51855.0,STARLINK-3545,PAYLOAD,2022-11-15 18:25:56,15.08835986,0.0002141,53.2187,50.6752,36.5083,323.6055,0.00021795,3.182e-05,0.0,0 STARLINK-3545,1 51855U 22022D   22319.76801353  .00003182  00000-0  21795-3 0  9993,2 51855  53.2187  50.6752 0002141  36.5083 323.6055 15.08835986 40315,6917.893,95.438,541.239,538.2769999999998,0.0
51855.0,STARLINK-3545,PAYLOAD,2022-11-16 11:55:10,15.08839165,0.0002228,53.2186,47.4038,35.3837,324.7303,0.00019038,2.743e-05,0.0,0 STARLINK-3545,1 51855U 22022D   22320.49665451  .00002743  00000-0  19038-3 0  9991,2 51855  53.2186  47.4038 0002228  35.3837 324.7303 15.08839165 40428,6917.8830000000025,95.438,541.289,538.207,0.0
51855.0,STARLINK-3545,PAYLOAD,2022-11-16 18:16:43,15.0884423,0.0002229,53.2185,46.2143,35.5999,324.5142,0.00024964,3.688e-05,0.0,0 STARLINK-3545,1 51855U 22022D   22320.76161301  .00003688  00000-0  24964-3 0  9999,2 51855  53.2185  46.2143 0002229  35.5999 324.5142 15.08844230 40465,6917.8669999999975,95.437,541.274,538.19,0.0
51855.0,STARLINK-3545,PAYLOAD,2022-11-17 08:35:10,15.08862063,0.0002211,53.2184,43.5383,35.1128,325.0009,0.0005287,8.141e-05,0.0,0 STARLINK-3545,1 51855U 22022D   22321.35776376  .00008141  00000-0  52870-3 0  9995,2 51855  53.2184  43.5383 0002211  35.1128 325.0009 15.08862063 40553,6917.813,95.436,541.207,538.148,0.0
51855.0,STARLINK-3545,PAYLOAD,2022-11-17 13:21:20,15.08858759,0.0002238,53.2183,42.6463,33.0879,327.0252,0.00040807,6.216e-05,0.0,0 STARLINK-3545,1 51855U 22022D   22321.55648319  .00006216  00000-0  40807-3 0  9990,2 51855  53.2183  42.6463 0002238  33.0879 327.0252 15.08858759 40582,6917.823,95.436,541.236,538.14,0.0
51855.0,STARLINK-3545,PAYLOAD,2022-11-17 14:56:43,15.08861145,0.0002194,53.2183,42.349,33.9218,326.1914,0.0004424,6.764e-05,0.0,0 STARLINK-3545,1 51855U 22022D   22321.62272179  .00006764  00000-0  44240-3 0  9998,2 51855  53.2183  42.3490 0002194  33.9218 326.1914 15.08861145 40595,6917.816,95.436,541.1990000000002,538.163,0.0
51855.0,STARLINK-3545,PAYLOAD,2022-11-18 11:36:43,15.08857098,0.0002199,53.2182,38.4835,34.9334,325.1803,0.00031098,4.667e-05,0.0,0 STARLINK-3545,1 51855U 22022D   22322.48383838  .00004667  00000-0  31098-3 0  9995,2 51855  53.2182  38.4835 0002199  34.9334 325.1803 15.08857098 40721,6917.828,95.436,541.214,538.172,0.0
51855.0,STARLINK-3545,PAYLOAD,2022-11-18 14:47:29,15.08852679,0.0001934,53.2177,37.8876,24.0788,336.0294,0.00049169,7.549e-05,0.0,0 STARLINK-3545,1 51855U 22022D   22322.61631873  .00007549  00000-0  49169-3 0  9995,2 51855  53.2177  37.8876 0001934  24.0788 336.0294 15.08852679 40749,6917.842,95.437,541.045,538.369,0.0
51855.0,STARLINK-3545,PAYLOAD,2022-11-18 22:44:25,15.08846468,0.0002159,53.2185,36.4018,34.2894,325.8237,0.00063083,9.768e-05,0.0,0 STARLINK-3545,1 51855U 22022D   22322.94752223  .00009768  00000-0  63083-3 0  9990,2 51855  53.2185  36.4018 0002159  34.2894 325.8237 15.08846468 40799,6917.861,95.437,541.219,538.232,0.0
51855.0,STARLINK-3545,PAYLOAD,2022-11-19 11:27:31,15.08836404,0.0002248,53.2198,34.024,24.486,335.6238,0.00021042,3.062e-05,0.0,0 STARLINK-3545,1 51855U 22022D   22323.47744496  .00003062  00000-0  21042-3 0  9992,2 51855  53.2198  34.0240 0002248  24.4860 335.6238 15.08836404 40875,6917.891,95.438,541.312,538.201,0.0
51855.0,STARLINK-3545,PAYLOAD,2022-11-19 14:38:17,15.08835342,0.0002325,53.2191,33.4298,32.0515,328.0618,0.00011974,1.618e-05,0.0,0 STARLINK-3545,1 51855U 22022D   22323.60992689  .00001618  00000-0  11974-3 0  9994,2 51855  53.2191  33.4298 0002325  32.0515 328.0618 15.08835342 40892,6917.895,95.438,541.368,538.151,0.0
